STARLINK-31690          
1 59581U 24076T   26068.15974687 -.00002134  00000+0 -68075-4 0  9997
2 59581  43.0064  11.8152 0001079 265.0084  95.0645 15.27566842106436
TRANSPORTER-12 OBJECT BA
1 62657U 25009BA  26068.70118713  .00011330  00000+0  42733-3 0  9991
2 62657  97.3985 151.1390 0000403 234.6623 125.4579 15.27214003 63739
